[
  {
    "id": "26",
    "name_uz": "ТОШКЕНТ ШАҲАР",
    "name_ru": "ГОРОД ТАШКЕНТ",
    "districts": [
      {
        "id": "2601",
        "name_uz": "МИРОБОД ТУМАНИ",
        "name_ru": "МИРАБАДСКИЙ РАЙОН"
      },
      {
        "id": "2602",
        "name_uz": "МИРЗО УЛУҒБЕК ТУМАНИ",
        "name_ru": "МИРЗО УЛУГБЕКСКИЙ РАЙОН"
      },
      {
        "id": "2603",
        "name_uz": "ЮНУСОБОД ТУМАНИ",
        "name_ru": "ЮНУСАБАДСКИЙ РАЙОН"
      },
      {
        "id": "2604",
        "name_uz": "ЯККАСАРОЙ ТУМАНИ",
        "name_ru": "ЯККАСАРАЙСКИЙ РАЙОН"
      },
      {
        "id": "2605",
        "name_uz": "ШАЙХОНТОҲУР ТУМАНИ",
        "name_ru": "ШАЙХАНТАХУРСКИЙ РАЙОН"
      },
      {
        "id": "2606",
        "name_uz": "ЧИЛОНЗОР ТУМАНИ",
        "name_ru": "ЧИЛОНЗАРСКИЙ РАЙОН"
      },
      {
        "id": "2607",
        "name_uz": "СИРҒАЛИ ТУМАНИ",
        "name_ru": "СИРГЕЛИЙСИКЙ РАЙОН"
      },
      {
        "id": "2608",
        "name_uz": "ЯШНОБОД ТУМАНИ",
        "name_ru": "ЯШНАБАДСКИЙ РАЙОН"
      },
      {
        "id": "2609",
        "name_uz": "ОЛМАЗОР ТУМАНИ",
        "name_ru": "АЛМАЗАРСКИЙ РАЙОН"
      },
      {
        "id": "2610",
        "name_uz": "УЧТЕПА ТУМАНИ",
        "name_ru": "УЧТЕПИНСКИЙ РАЙОН"
      },
      {
        "id": "2611",
        "name_uz": "БЕКТЕМИР ТУМАНИ",
        "name_ru": "БЕКТЕМИРСКИЙ РАЙОН"
      }
    ]
  },
  {
    "id": "03",
    "name_uz": "АНДИЖОН ВИЛОЯТИ",
    "name_ru": "АНДИЖАНСКАЯ ОБЛАСТЬ",
    "districts": [
      {
        "id": "0301",
        "name_uz": "АНДИЖОН ШАҲАР",
        "name_ru": "ГОРОД АНДИЖАН"
      },
      {
        "id": "0303",
        "name_uz": "ХОНОБОД ШАҲАР",
        "name_ru": "ГОРОД ХАНАБАД"
      },
      {
        "id": "0305",
        "name_uz": "ҚОРАСУВ ШАҲАР",
        "name_ru": "ГОРОД КАРАСУ"
      },
      {
        "id": "0306",
        "name_uz": "ОЛТИНКЎЛ ТУМАНИ",
        "name_ru": "АЛТЫНКУЛЬСКИЙ РАЙОН"
      },
      {
        "id": "0307",
        "name_uz": "АНДИЖОН ТУМАНИ",
        "name_ru": "АНДИЖАНСКИЙ РАЙОН"
      },
      {
        "id": "0308",
        "name_uz": "БАЛИҚЧИ ТУМАНИ",
        "name_ru": "БАЛЫКЧИНСКИЙ РАЙОН"
      },
      {
        "id": "0309",
        "name_uz": "БЎЗ ТУМАНИ",
        "name_ru": "БОЗСКИЙ РАЙОН"
      },
      {
        "id": "0310",
        "name_uz": "БУЛОҚБОШИ ТУМАНИ",
        "name_ru": "БУЛАКБАШИНСКИЙ РАЙОН"
      },
      {
        "id": "0311",
        "name_uz": "ЖАЛОЛҚУДУҚ ТУМАНИ",
        "name_ru": "ДЖАЛАЛКУДУКСКИЙ РАЙОН"
      },
      {
        "id": "0312",
        "name_uz": "ИЗБОСКАН ТУМАНИ",
        "name_ru": "ИЗБАСКАНСКИЙ РАЙОН"
      },
      {
        "id": "0313",
        "name_uz": "УЛУҒНОР ТУМАНИ",
        "name_ru": "УЛУГНОРСКИЙ РАЙОН"
      },
      {
        "id": "0314",
        "name_uz": "ҚЎРҒОНТЕПА ТУМАНИ",
        "name_ru": "КУРГАНТЕПИНСКИЙ РАЙОН"
      },
      {
        "id": "0315",
        "name_uz": "АСАКА ТУМАНИ",
        "name_ru": "АСАКИНСКИЙ РАЙОН"
      },
      {
        "id": "0316",
        "name_uz": "МАРҲАМАТ ТУМАНИ",
        "name_ru": "МАРХАМАТСКИЙ РАЙОН"
      },
      {
        "id": "0317",
        "name_uz": "ШАҲРИХОН ТУМАНИ",
        "name_ru": "ШАХРИХАНСКИЙ РАЙОН"
      },
      {
        "id": "0318",
        "name_uz": "ПАХТАОБОД ТУМАНИ",
        "name_ru": "ПАХТААБАДСКИЙ РАЙОН"
      },
      {
        "id": "0319",
        "name_uz": "ХЎЖАОБОД ТУМАНИ",
        "name_ru": "ХОДЖААБАДСКИЙ РАЙОН"
      }
    ]
  },
  {
    "id": "06",
    "name_uz": "БУХОРО ВИЛОЯТИ",
    "name_ru": "БУХАРСКАЯ ОБЛАСТЬ",
    "districts": [
      {
        "id": "0601",
        "name_uz": "БУХОРО ШАҲАР",
        "name_ru": "ГОРОД БУХАРА"
      },
      {
        "id": "0603",
        "name_uz": "КОГОН ШАҲАР",
        "name_ru": "ГОРОД КАГАН"
      },
      {
        "id": "0604",
        "name_uz": "ОЛОТ ТУМАНИ",
        "name_ru": "АЛАТСКИЙ РАЙОН"
      },
      {
        "id": "0605",
        "name_uz": "БУХОРО ТУМАНИ",
        "name_ru": "БУХАРСКИЙ РАЙОН"
      },
      {
        "id": "0606",
        "name_uz": "ВОБКЕНТ ТУМАНИ",
        "name_ru": "ВАБКЕНТСКИЙ РАЙОН"
      },
      {
        "id": "0607",
        "name_uz": "ҒИЖДУВОН ТУМАНИ",
        "name_ru": "ГИЖДУВАНСКИЙ РАЙОН"
      },
      {
        "id": "0608",
        "name_uz": "ЖОНДОР ТУМАНИ",
        "name_ru": "ДЖАНДАРСКИЙ РАЙОН"
      },
      {
        "id": "0609",
        "name_uz": "КОГОН ТУМАНИ",
        "name_ru": "КАГАНСКИЙ РАЙОН"
      },
      {
        "id": "0610",
        "name_uz": "ҚОРАКЎЛ ТУМАНИ",
        "name_ru": "КАРАКУЛЬСКИЙ РАЙОН"
      },
      {
        "id": "0611",
        "name_uz": "ПЕШКУ ТУМАНИ",
        "name_ru": "ПЕШКУНСКИЙ РАЙОН"
      },
      {
        "id": "0612",
        "name_uz": "РОМИТАН ТУМАНИ",
        "name_ru": "РОМИТАНСКИЙ РАЙОН"
      },
      {
        "id": "0613",
        "name_uz": "ШОФИРИКОН ТУМАНИ",
        "name_ru": "ШАФИРКАНСКИЙ РАЙОН"
      },
      {
        "id": "0614",
        "name_uz": "ҚОРОВУЛБОЗОР ТУМАНИ",
        "name_ru": "КАРАУЛБАЗАРСКИЙ РАЙОН"
      }
    ]
  },
  {
    "id": "08",
    "name_uz": "ЖИЗЗАХ ВИЛОЯТИ",
    "name_ru": "ДЖИЗАКСКАЯ ОБЛАСТЬ",
    "districts": [
      {
        "id": "0801",
        "name_uz": "АРНАСОЙ ТУМАНИ",
        "name_ru": "АРНАСАЙСКИЙ РАЙОН"
      },
      {
        "id": "0802",
        "name_uz": "БАХМАЛ ТУМАНИ",
        "name_ru": "БАХМАЛЬСКИЙ РАЙОН"
      },
      {
        "id": "0803",
        "name_uz": "ҒАЛЛАОРОЛ ТУМАНИ",
        "name_ru": "ГАЛЛЯАРАЛЬСКИЙ РАЙОН"
      },
      {
        "id": "0804",
        "name_uz": "ШАРОФ РАШИДОВ ТУМАНИ",
        "name_ru": "ШАРОФ РАШИДОВСКИЙ РАЙОН"
      },
      {
        "id": "0805",
        "name_uz": "ДЎСТЛИК ТУМАНИ",
        "name_ru": "ДУСТЛИКСКИЙ РАЙОН"
      },
      {
        "id": "0806",
        "name_uz": "ЗАРБДОР ТУМАНИ",
        "name_ru": "ЗАРБДОРСКИЙ РАЙОН"
      },
      {
        "id": "0807",
        "name_uz": "ЗОМИН ТУМАНИ",
        "name_ru": "ЗААМИНСКИЙ РАЙОН"
      },
      {
        "id": "0808",
        "name_uz": "ЗАФАРОБОД ТУМАНИ",
        "name_ru": "ЗАФАРАБАДСКИЙ РАЙОН"
      },
      {
        "id": "0809",
        "name_uz": "МИРЗАЧЎЛ ТУМАНИ",
        "name_ru": "МИРЗАЧУЛЬСКИЙ РАЙОН"
      },
      {
        "id": "0810",
        "name_uz": "ПАХТАКОР ТУМАНИ",
        "name_ru": "ПАХТАКОРСКИЙ РАЙОН"
      },
      {
        "id": "0811",
        "name_uz": "ФОРИШ ТУМАНИ",
        "name_ru": "ФАРИШСКИЙ РАЙОН"
      },
      {
        "id": "0812",
        "name_uz": "ЖИЗЗАХ ШАҲАР",
        "name_ru": "ГОРОД ДЖИЗАК"
      },
      {
        "id": "0813",
        "name_uz": "ЯНГИОБОД ТУМАНИ",
        "name_ru": "ЯНГИАБАДСКИЙ РАЙОН"
      }
    ]
  },
  {
    "id": "10",
    "name_uz": "ҚАШҚАДАРЁ ВИЛОЯТИ",
    "name_ru": "КАШКАДАРЬИНСКАЯ ОБЛАСТЬ",
    "districts": [
      {
        "id": "1001",
        "name_uz": "ҚАРШИ ШАҲАР",
        "name_ru": "ГОРОД КАРШИ"
      },
      {
        "id": "1002",
        "name_uz": "ШАҲРИСАБЗ ШАҲАР",
        "name_ru": "ГОРОД ШАХРИСАБЗ"
      },
      {
        "id": "1004",
        "name_uz": "ҒУЗОР ТУМАНИ",
        "name_ru": "ГУЗАРСКИЙ РАЙОН"
      },
      {
        "id": "1005",
        "name_uz": "ДЕҲҚОНОБОД ТУМАНИ",
        "name_ru": "ДЕХКАНАБАДСКИЙ РАЙОН"
      },
      {
        "id": "1006",
        "name_uz": "ҚАМАШИ ТУМАНИ",
        "name_ru": "КАМАШИНСКИЙ РАЙОН"
      },
      {
        "id": "1007",
        "name_uz": "ҚАРШИ ТУМАНИ",
        "name_ru": "КАРШИНСКИЙ РАЙОН"
      },
      {
        "id": "1008",
        "name_uz": "КОСОН ТУМАНИ",
        "name_ru": "КАСАНСКИЙ РАЙОН"
      },
      {
        "id": "1009",
        "name_uz": "КИТОБ ТУМАНИ",
        "name_ru": "КИТАБСКИЙ РАЙОН"
      },
      {
        "id": "1010",
        "name_uz": "МУБОРАК ТУМАНИ",
        "name_ru": "МУБАРЕКСКИЙ РАЙОН"
      },
      {
        "id": "1011",
        "name_uz": "НИШОН ТУМАНИ",
        "name_ru": "НИШАНСКИЙ РАЙОН"
      },
      {
        "id": "1012",
        "name_uz": "КАСБИ ТУМАНИ",
        "name_ru": "КАСБИНСКИЙ РАЙОН"
      },
      {
        "id": "1014",
        "name_uz": "ЧИРОҚЧИ ТУМАНИ",
        "name_ru": "ЧИРАКЧИНСКИЙ РАЙОН"
      },
      {
        "id": "1015",
        "name_uz": "ШАХРИСАБЗ ТУМАНИ",
        "name_ru": "ШАХРИЗАБСКИЙ РАЙОН"
      },
      {
        "id": "1016",
        "name_uz": "ЯККАБОҒ ТУМАНИ",
        "name_ru": "ЯККАБАГСКИЙ РАЙОН"
      },
      {
        "id": "1017",
        "name_uz": "МИРИШКОР ТУМАНИ",
        "name_ru": "МИРИШКОРСКИЙ РАЙОН"
      }
    ]
  },
  {
    "id": "12",
    "name_uz": "НАВОИЙ ВИЛОЯТИ",
    "name_ru": "НАВОИЙСКАЯ ОБЛАСТЬ",
    "districts": [
      {
        "id": "1201",
        "name_uz": "НАВОИЙ ШАҲАР",
        "name_ru": "ГОРОД НАВОЙИ"
      },
      {
        "id": "1202",
        "name_uz": "ЗАРАФШОН ШАҲАР",
        "name_ru": "ГОРОД ЗАРАВШАН"
      },
      {
        "id": "1203",
        "name_uz": "УЧКУДУҚ ШАҲАР",
        "name_ru": "ГОРОД УЧКУДУК"
      },
      {
        "id": "1204",
        "name_uz": "КОНИМЕХ ТУМАНИ",
        "name_ru": "КЕНИМЕХСКИЙ РАЙОН"
      },
      {
        "id": "1205",
        "name_uz": "ҚИЗИЛТЕПА ТУМАНИ",
        "name_ru": "КЫЗЫЛТЕПИНСКИЙ РАЙОН"
      },
      {
        "id": "1207",
        "name_uz": "ТОМДИ ТУМАНИ",
        "name_ru": "ТАМДЫНСКИЙ РАЙОН"
      },
      {
        "id": "1208",
        "name_uz": "НАВБАҲОР ТУМАНИ",
        "name_ru": "НАВБАХОРСКИЙ РАЙОН"
      },
      {
        "id": "1209",
        "name_uz": "ХАТИРЧИ ТУМАНИ",
        "name_ru": "ХАТЫРЧИНСКИЙ РАЙОН"
      },
      {
        "id": "1210",
        "name_uz": "НУРОТА ТУМАНИ",
        "name_ru": "НУРАТИНСКИЙ РАЙОН"
      },
      {
        "id": "1211",
        "name_uz": "КАРМАНА ТУМАНИ",
        "name_ru": "КАРМАНИНСКИЙ РАЙОН"
      }
    ]
  },
  {
    "id": "14",
    "name_uz": "НАМАНГАН ВИЛОЯТИ",
    "name_ru": "НАМАНГАНСКАЯ ОБЛАСТЬ",
    "districts": [
      {
        "id": "1401",
        "name_uz": "НАМАНГАН ШАҲАР",
        "name_ru": "ГОРОД НАМАНГАН"
      },
      {
        "id": "1407",
        "name_uz": "МИНГБУЛОҚ ТУМАНИ",
        "name_ru": "МИНГБУЛАКСКИЙ РАЙОН"
      },
      {
        "id": "1408",
        "name_uz": "КОСОНСОЙ ТУМАНИ",
        "name_ru": "КАСАНСАЙСКИЙ РАЙОН"
      },
      {
        "id": "1409",
        "name_uz": "НАМАНГАН ТУМАНИ",
        "name_ru": "НАМАНГАНСКИЙ РАЙОН"
      },
      {
        "id": "1410",
        "name_uz": "НОРИН ТУМАНИ",
        "name_ru": "НАРЫНСКИЙ РАЙОН"
      },
      {
        "id": "1411",
        "name_uz": "ПОП ТУМАНИ",
        "name_ru": "ПАПСКИЙ РАЙОН"
      },
      {
        "id": "1412",
        "name_uz": "ТЎРАҚЎРҒОН ТУМАНИ",
        "name_ru": "ТУРАКУРГАНСКИЙ РАЙОН"
      },
      {
        "id": "1413",
        "name_uz": "УЙЧИ ТУМАНИ",
        "name_ru": "УЙЧИНСКИЙ РАЙОН"
      },
      {
        "id": "1414",
        "name_uz": "УЧҚЎРҒОН ТУМАНИ",
        "name_ru": "УЧКУРГАНСКИЙ РАЙОН"
      },
      {
        "id": "1415",
        "name_uz": "ЧОРТОҚ ТУМАНИ",
        "name_ru": "ЧАРТАКСКИЙ РАЙОН"
      },
      {
        "id": "1416",
        "name_uz": "ЧУСТ ТУМАНИ",
        "name_ru": "ЧУСТСКИЙ РАЙОН"
      },
      {
        "id": "1417",
        "name_uz": "ЯНГИҚЎРГОН ТУМАНИ",
        "name_ru": "ЯНГИКУРГАНСКИЙ РАЙОН"
      }
    ]
  },
  {
    "id": "18",
    "name_uz": "САМАРҚАНД ВИЛОЯТИ",
    "name_ru": "САМАРКАНДСКАЯ ОБЛАСТЬ",
    "districts": [
      {
        "id": "1801",
        "name_uz": "САМАРҚАНД ШАҲАР",
        "name_ru": "ГОРОД САМАРКАНД"
      },
      {
        "id": "1804",
        "name_uz": "ТОЙЛОҚ ТУМАНИ",
        "name_ru": "ТАЙЛЯКСКИЙ РАЙОН"
      },
      {
        "id": "1806",
        "name_uz": "КАТТАҚЎРҒОН ШАҲАР",
        "name_ru": "ГОРОД КАТТАКУРГАН"
      },
      {
        "id": "1808",
        "name_uz": "ОҚДАРЁ ТУМАНИ",
        "name_ru": "АКДАРЬИНСКИЙ РАЙОН"
      },
      {
        "id": "1809",
        "name_uz": "БУЛУНҒУР ТУМАНИ",
        "name_ru": "БУЛУНГУРСКИЙ РАЙОН"
      },
      {
        "id": "1811",
        "name_uz": "ЖОМБОЙ ТУМАНИ",
        "name_ru": "ДЖАМБАЙСКИЙ РАЙОН"
      },
      {
        "id": "1812",
        "name_uz": "ИШТИХОН ТУМАНИ",
        "name_ru": "ИШТЫХАНСКИЙ РАЙОН"
      },
      {
        "id": "1813",
        "name_uz": "КАТТАҚЎРҒОН ТУМАНИ",
        "name_ru": "КАТТАКУРГАНСКИЙ РАЙОН"
      },
      {
        "id": "1814",
        "name_uz": "ҚЎШРАБОД ТУМАНИ",
        "name_ru": "КОШРАБАДСКИЙ РАЙОН"
      },
      {
        "id": "1815",
        "name_uz": "НАРПАЙ ТУМАНИ",
        "name_ru": "НАРПАЙСКИЙ РАЙОН"
      },
      {
        "id": "1817",
        "name_uz": "ПАЙАРИҚ ТУМАНИ",
        "name_ru": "ПАЙАРЫКСКИЙ РАЙОН"
      },
      {
        "id": "1818",
        "name_uz": "ПАСТДАРҒОМ ТУМАНИ",
        "name_ru": "ПАСТДАРГОМСКИЙ РАЙОН"
      },
      {
        "id": "1819",
        "name_uz": "ПАХТАЧИ ТУМАНИ",
        "name_ru": "ПАХТААЧИНСКИЙ РАЙОН"
      },
      {
        "id": "1820",
        "name_uz": "САМАРҚАНД ТУМАНИ",
        "name_ru": "САМАРКАНДСКИЙ РАЙОН"
      },
      {
        "id": "1821",
        "name_uz": "НУРОБОД ТУМАНИ",
        "name_ru": "НУРОБАДСКИЙ РАЙОН"
      },
      {
        "id": "1822",
        "name_uz": "УРГУТ ТУМАНИ",
        "name_ru": "УРГУТССКИЙ РАЙОН"
      }
    ]
  },
  {
    "id": "22",
    "name_uz": "СУРХОНДАРЁ ВИЛОЯТИ",
    "name_ru": "СУРХАНДАРЬИНСКАЯ ОБЛАСТЬ",
    "districts": [
      {
        "id": "2201",
        "name_uz": "ТЕРМИЗ ШАҲАР",
        "name_ru": "ГОРОД ТЕРМЕЗ"
      },
      {
        "id": "2203",
        "name_uz": "АНГОР ТУМАНИ",
        "name_ru": "АНГОРСКИЙ РАЙОН"
      },
      {
        "id": "2204",
        "name_uz": "ОЛТИНСОЙ ТУМАНИ",
        "name_ru": "АЛТЫНСАЙСКИЙ РАЙОН"
      },
      {
        "id": "2205",
        "name_uz": "БОЙСУН ТУМАНИ",
        "name_ru": "БАЙСУНСКИЙ РАЙОН"
      },
      {
        "id": "2206",
        "name_uz": "МУЗРАБОД ТУМАНИ",
        "name_ru": "МУЗРАБАДСКИЙ РАЙОН"
      },
      {
        "id": "2207",
        "name_uz": "ДЕНОВ ТУМАНИ",
        "name_ru": "ДЕНАУССКИЙ РАЙОН"
      },
      {
        "id": "2208",
        "name_uz": "ЖАРҚЎРҒОН ТУМАНИ",
        "name_ru": "ДЖАРКУРГАНСКИЙ РАЙОН"
      },
      {
        "id": "2209",
        "name_uz": "ҚУМҚЎРҒОН ТУМАНИ",
        "name_ru": "КУМКУРГАНСКИЙ РАЙОН"
      },
      {
        "id": "2210",
        "name_uz": "ҚИЗИРИҚ ТУМАНИ",
        "name_ru": "КИЗИРИКСКИЙ РАЙОН"
      },
      {
        "id": "2211",
        "name_uz": "САРИОСИЁ ТУМАНИ",
        "name_ru": "САРЫАССИЙСКИЙ РАЙОН"
      },
      {
        "id": "2212",
        "name_uz": "ТЕРМИЗ ТУМАНИ",
        "name_ru": "ТЕРМЕЗСКИЙ РАЙОН"
      },
      {
        "id": "2213",
        "name_uz": "ШЕРОБОД ТУМАНИ",
        "name_ru": "ШЕРАБАДСКИЙ РАЙОН"
      },
      {
        "id": "2214",
        "name_uz": "ШЎРЧИ ТУМАНИ",
        "name_ru": "ШУРЧИНСКИЙ РАЙОН"
      },
      {
        "id": "2215",
        "name_uz": "УЗУН ТУМАНИ",
        "name_ru": "УЗУНСКИЙ РАЙОН"
      }
    ]
  },
  {
    "id": "24",
    "name_uz": "СИРДАРЁ ВИЛОЯТИ",
    "name_ru": "СЫРДАРЬИНСКАЯ ОБЛАСТЬ",
    "districts": [
      {
        "id": "2401",
        "name_uz": "ОҚОЛТИН ТУМАНИ",
        "name_ru": "ОКАЛТЫНСКИЙ РАЙОН"
      },
      {
        "id": "2402",
        "name_uz": "БОЁВУТ ТУМАНИ",
        "name_ru": "БАЯУТСКИЙ РАЙОН"
      },
      {
        "id": "2403",
        "name_uz": "ГУЛИСТОН ТУМАНИ",
        "name_ru": "ГУЛИСТАНСКИЙ РАЙОН"
      },
      {
        "id": "2404",
        "name_uz": "МЕҲНАТОБОД ТУМАНИ",
        "name_ru": "МЕХНАТАБАДСКИЙ РАЙОН"
      },
      {
        "id": "2405",
        "name_uz": "МИРЗАОБОД ТУМАНИ",
        "name_ru": "МИРЗААБАДСКИЙ РАЙОН"
      },
      {
        "id": "2406",
        "name_uz": "САЙХУНОБОД ТУМАНИ",
        "name_ru": "САЙХУНАБАДСКИЙ РАЙОН"
      },
      {
        "id": "2407",
        "name_uz": "СИРДАРЁ ТУМАНИ",
        "name_ru": "СЫРДАРЬИНСКИЙ РАЙОН"
      },
      {
        "id": "2408",
        "name_uz": "ХОВОС ТУМАНИ",
        "name_ru": "ХАВАСТСКИЙ РАЙОН"
      },
      {
        "id": "2409",
        "name_uz": "САРДОБА ТУМАНИ",
        "name_ru": "САРДОБИНСКИЙ РАЙОН"
      },
      {
        "id": "2410",
        "name_uz": "ГУЛИСТОН ШАҲАР",
        "name_ru": "ГОРОД ГУЛИСТАН"
      },
      {
        "id": "2412",
        "name_uz": "ШИРИН ШАҲАР",
        "name_ru": "ГОРОД ШИРИН"
      },
      {
        "id": "2413",
        "name_uz": "ЯНГИЕР ШАҲАР",
        "name_ru": "ГОРОД ЯНГИЕР"
      }
    ]
  },
  {
    "id": "27",
    "name_uz": "ТОШКЕНТ ВИЛОЯТИ",
    "name_ru": "ТАШКЕНТСКАЯ ОБЛАСТЬ",
    "districts": [
      {
        "id": "2701",
        "name_uz": "БЕКОБОД ТУМАНИ",
        "name_ru": "БЕКАБАДСКИЙ РАЙОН"
      },
      {
        "id": "2702",
        "name_uz": "БЎКА ТУМАНИ",
        "name_ru": "БУКИНСКИЙ РАЙОН"
      },
      {
        "id": "2703",
        "name_uz": "БЎСТОНЛИҚ ТУМАНИ",
        "name_ru": "БОСТАНЛЫКСКИЙ РАЙОН"
      },
      {
        "id": "2704",
        "name_uz": "ЗАНГИОТА ТУМАНИ",
        "name_ru": "ЗАНГИАТИНСКИЙ РАЙОН"
      },
      {
        "id": "2705",
        "name_uz": "ЮҚОРИ ЧИРЧИҚ ТУМАНИ",
        "name_ru": "ЮКОРИ ЧИРЧИКСКИЙ РАЙОН"
      },
      {
        "id": "2706",
        "name_uz": "ҚИБРАЙ ТУМАНИ",
        "name_ru": "КИБРАЙСКИЙ РАЙОН"
      },
      {
        "id": "2707",
        "name_uz": "ОҚҚЎРҒОН ТУМАНИ",
        "name_ru": "АККУРГАНСКИЙ РАЙОН"
      },
      {
        "id": "2708",
        "name_uz": "ОҲАНГАРОН ТУМАНИ",
        "name_ru": "АХАНГАРАНСКИЙ РАЙОН"
      },
      {
        "id": "2709",
        "name_uz": "ПАРКЕНТ ТУМАНИ",
        "name_ru": "ПАРКЕНТСКИЙ РАЙОН"
      },
      {
        "id": "2710",
        "name_uz": "ПИСКЕНТ ТУМАНИ",
        "name_ru": "ПСКЕНТСКИЙ РАЙОН"
      },
      {
        "id": "2711",
        "name_uz": "ТОШКЕНТ ТУМАНИ",
        "name_ru": "ТАШКЕНТСКИЙ РАЙОН"
      },
      {
        "id": "2712",
        "name_uz": "ЎРТА ЧИРЧИҚ ТУМАНИ",
        "name_ru": "УРТА-ЧИРЧИКСКИЙ РАЙОН"
      },
      {
        "id": "2713",
        "name_uz": "ЧИНОЗ ТУМАНИ",
        "name_ru": "ЧИНАЗСКИЙ РАЙОН"
      },
      {
        "id": "2714",
        "name_uz": "ҚУЙИ ЧИРЧИҚ ТУМАНИ",
        "name_ru": "КУЙИ-ЧИРЧИКСКИЙ РАЙОН"
      },
      {
        "id": "2715",
        "name_uz": "ЯНГИЙЎЛ ТУМАНИ",
        "name_ru": "ЯНГИЙУЛЬСКИЙ РАЙОН"
      },
      {
        "id": "2716",
        "name_uz": "АНГРЕН ШАҲАР",
        "name_ru": "ГОРОД АНГРЕН"
      },
      {
        "id": "2717",
        "name_uz": "БЕКОБОД ШАҲАР",
        "name_ru": "ГОРОД БЕКАБАД"
      },
      {
        "id": "2718",
        "name_uz": "ОЛМАЛИҚ ШАҲАР",
        "name_ru": "ГОРОД АЛМАЛЫК"
      },
      {
        "id": "2719",
        "name_uz": "ОҲАНГАРОН ШАҲАР",
        "name_ru": "ГОРОД АХАНГАРАН"
      },
      {
        "id": "2720",
        "name_uz": "ЧИРЧИҚ ШАҲАР",
        "name_ru": "ГОРОД ЧИРЧИК"
      },
      {
        "id": "2722",
        "name_uz": "ЯНГИЙЎЛ ШАҲАР",
        "name_ru": "ГОРОД ЯНГИЙУЛЬ"
      },
      {
        "id": "2723",
        "name_uz": "НУРАФШОН ШАҲАР",
        "name_ru": "ГОРОД НУРАФШОН"
      }
    ]
  },
  {
    "id": "30",
    "name_uz": "ФАРҒОНА ВИЛОЯТИ",
    "name_ru": "ФЕРГАНСКАЯ ОБЛАСТЬ",
    "districts": [
      {
        "id": "3001",
        "name_uz": "ҚУВАСОЙ ШАҲАР",
        "name_ru": "ГОРОД КУВАСАЙ"
      },
      {
        "id": "3003",
        "name_uz": "ҚЎҚОН ШАҲАР",
        "name_ru": "ГОРОД КОКАНД"
      },
      {
        "id": "3004",
        "name_uz": "МАРҒИЛОН ШАҲАР",
        "name_ru": "ГОРОД МАРГИЛАН"
      },
      {
        "id": "3005",
        "name_uz": "ФАРҒОНА ШАҲАР",
        "name_ru": "ГОРОД ФЕРГАНА"
      },
      {
        "id": "3006",
        "name_uz": "БЕШАРИҚ ТУМАНИ",
        "name_ru": "БЕШАРЫКСКИЙ РАЙОН"
      },
      {
        "id": "3007",
        "name_uz": "БОҒДОД ТУМАНИ",
        "name_ru": "БАГДАДСКИЙ РАЙОН"
      },
      {
        "id": "3008",
        "name_uz": "БУВАЙДА ТУМАНИ",
        "name_ru": "БУВАЙДИНСКИЙ РАЙОН"
      },
      {
        "id": "3009",
        "name_uz": "ДАНГАРА ТУМАНИ",
        "name_ru": "ДАНГАРИНСКИЙ РАЙОН"
      },
      {
        "id": "3010",
        "name_uz": "ЁЗЁВОН ТУМАНИ",
        "name_ru": "ЯЗЬЯВАНСКИЙ РАЙОН"
      },
      {
        "id": "3011",
        "name_uz": "ҚУВА ТУМАНИ",
        "name_ru": "КУВИНСКИЙ РАЙОН"
      },
      {
        "id": "3012",
        "name_uz": "ОЛТИАРИҚ ТУМАНИ",
        "name_ru": "АЛТЫАРЫКСКИЙ РАЙОН"
      },
      {
        "id": "3013",
        "name_uz": "ҚЎШТЕПА ТУМАНИ",
        "name_ru": "КУШТЕПИНСКИЙ РАЙОН"
      },
      {
        "id": "3014",
        "name_uz": "РИШТОН ТУМАНИ",
        "name_ru": "РИШТАНСКИЙ РАЙОН"
      },
      {
        "id": "3015",
        "name_uz": "СЎХ ТУМАНИ",
        "name_ru": "СОХСКИЙ РАЙОН"
      },
      {
        "id": "3016",
        "name_uz": "ТОШЛОҚ ТУМАНИ",
        "name_ru": "ТАШЛАКСКИЙ РАЙОН"
      },
      {
        "id": "3017",
        "name_uz": "ЎЗБЕКИСТОН ТУМАНИ",
        "name_ru": "УЗБЕКИСТАНСКИЙ РАЙОН"
      },
      {
        "id": "3018",
        "name_uz": "УЧКЎПРИҚ ТУМАНИ",
        "name_ru": "УЧКУПРИКСКИЙ РАЙОН"
      },
      {
        "id": "3019",
        "name_uz": "ФАРҒОНА ТУМАНИ",
        "name_ru": "ФЕРГАНСКИЙ РАЙОН"
      },
      {
        "id": "3020",
        "name_uz": "ФУРҚАТ ТУМАНИ",
        "name_ru": "ФУРКАТСКИЙ РАЙОН"
      }
    ]
  },
  {
    "id": "33",
    "name_uz": "ХОРАЗМ ВИЛОЯТИ",
    "name_ru": "ХОРЕЗМСКАЯ ОБЛАСТЬ",
    "districts": [
      {
        "id": "3301",
        "name_uz": "УРГАНЧ ШАҲАР",
        "name_ru": "ГОРОД УРГЕНЧ"
      },
      {
        "id": "3302",
        "name_uz": "ХИВА ШАҲАР",
        "name_ru": "ГОРОД ХИВА"
      },
      {
        "id": "3303",
        "name_uz": "ПИТНАК ТУМАНИ",
        "name_ru": "ПИТНАК РАЙОН"
      },
      {
        "id": "3304",
        "name_uz": "УРГАНЧ ТУМАНИ",
        "name_ru": "УРГЕНЧСКИЙ РАЙОН"
      },
      {
        "id": "3305",
        "name_uz": "ХИВА ТУМАНИ",
        "name_ru": "ХИВИНСКИЙ РАЙОН"
      },
      {
        "id": "3306",
        "name_uz": "ХОЗАРАСП ТУМАНИ",
        "name_ru": "ХАЗАРАСПСКИЙ РАЙОН"
      },
      {
        "id": "3307",
        "name_uz": "ГУРЛАН ТУМАНИ",
        "name_ru": "ГУРЛЕНСКИЙ РАЙОН"
      },
      {
        "id": "3308",
        "name_uz": "ШОВОТ ТУМАНИ",
        "name_ru": "ШАВАТСКИЙ РАЙОН"
      },
      {
        "id": "3309",
        "name_uz": "ЯНГИАРИҚ ТУМАНИ",
        "name_ru": "ЯНГИАРЫКСКИЙ РАЙОН"
      },
      {
        "id": "3310",
        "name_uz": "ҚЎШКЎПИР ТУМАНИ",
        "name_ru": "КУШКУПЫРСКИЙ РАЙОН"
      },
      {
        "id": "3311",
        "name_uz": "БОҒОТ ТУМАНИ",
        "name_ru": "БАГАТСКИЙ РАЙОН"
      },
      {
        "id": "3312",
        "name_uz": "ХОНҚА ТУМАНИ",
        "name_ru": "ХАНКИНСКИЙ РАЙОН"
      },
      {
        "id": "3313",
        "name_uz": "ЯНГИБОЗОР ТУМАНИ",
        "name_ru": "ЯНГИБАЗАРСКИЙ РАЙОН"
      }
    ]
  },
  {
    "id": "35",
    "name_uz": "ҚОРАҚАЛПОҒИСТОН РЕСП.",
    "name_ru": "РЕСП. КАРАКАЛПАКСТАН",
    "districts": [
      {
        "id": "3501",
        "name_uz": "НУКУС ШАҲАР",
        "name_ru": "ГОРОД НУКУС"
      },
      {
        "id": "3508",
        "name_uz": "АМУДАРЁ ТУМАНИ",
        "name_ru": "АМУДАРЬИНСКИЙ РАЙОН"
      },
      {
        "id": "3509",
        "name_uz": "БЕРУНИЙ ТУМАНИ",
        "name_ru": "БЕРУНИЙСКИЙ РАЙОН"
      },
      {
        "id": "3511",
        "name_uz": "КЕГЕЙЛИ ТУМАНИ",
        "name_ru": "КЕГЕЙЛИЙСКИЙ РАЙОН"
      },
      {
        "id": "3512",
        "name_uz": "ҚЎНҒРОД ТУМАНИ",
        "name_ru": "КУНГРАДСКИЙ РАЙОН"
      },
      {
        "id": "3513",
        "name_uz": "ҚОНЛИКЎЛ ТУМАНИ",
        "name_ru": "КАНДИКУЛЬСКИЙ РАЙОН"
      },
      {
        "id": "3514",
        "name_uz": "МУЙНОҚ ТУМАНИ",
        "name_ru": "МУЙНАКСКИЙ РАЙОН"
      },
      {
        "id": "3515",
        "name_uz": "НУКУС ТУМАНИ",
        "name_ru": "НУКУССКИЙ РАЙОН"
      },
      {
        "id": "3516",
        "name_uz": "ТАХТАКЎПИР ТУМАНИ",
        "name_ru": "ТАХТАКУПЫРСКИЙ РАЙОН"
      },
      {
        "id": "3517",
        "name_uz": "ТЎРТКЎЛ ТУМАНИ",
        "name_ru": "ТУРТКУЛЬСКИЙ РАЙОН"
      },
      {
        "id": "3518",
        "name_uz": "ХЎЖАЙЛИ ТУМАНИ",
        "name_ru": "ХОДЖЕЙЛИЙСКИЙ РАЙОН"
      },
      {
        "id": "3519",
        "name_uz": "ЧИМБОЙ ТУМАНИ",
        "name_ru": "ЧИМБАЙСКИЙ РАЙОН"
      },
      {
        "id": "3520",
        "name_uz": "ШУМАНАЙ ТУМАНИ",
        "name_ru": "ШУМАНАЙСКИЙ РАЙОН"
      },
      {
        "id": "3521",
        "name_uz": "ЭЛЛИКҚЪАЛА ТУМАНИ",
        "name_ru": "ЭЛЛИККАЛИНСКИЙ РАЙОН"
      },
      {
        "id": "3522",
        "name_uz": "ҚОРАУЗАК ТУМАНИ",
        "name_ru": "КАРАУЗЯКСКИЙ РАЙОН"
      },
      {
        "id": "3523",
        "name_uz": "ТАХИАТОШ ТУМАНИ",
        "name_ru": "ТАХИАТАШСКИЙ РАЙОН"
      }
    ]
  }
]
